25851,GLOBALSTAR M035,1999,130.37,-1.0,-,51.99,Inactive,0,MEO,USA,Globalstar,Unknown,Unknown,Delta,1 25851U 99037A   23365.72850293 -.00000031  00000+0  12460-2 0  9993,2 25851  51.9913 164.6109 0013644 191.2465 262.8675 11.04528297 37313,11.04528297,0.0013644,MEO
25852,GLOBALSTAR M032,1999,128.68,-1.0,-,52.0,Inactive,0,MEO,USA,Globalstar,Unknown,Unknown,Delta,1 25852U 99037B   23365.44286742 -.00000036  00000+0  98783-3 0  9993,2 25852  51.9978  27.2769 0008662 347.1195  12.9383 11.19048015 75039,11.19048015,0.0008662,MEO
25853,GLOBALSTAR M051,1999,126.07,-1.0,-,51.98,Inactive,0,LEO,USA,Globalstar,Unknown,Unknown,Delta,1 25853U 99037C   24001.10026408 -.00000053  00000+0  46400-3 0  9994,2 25853  51.9778 246.8864 0001886  12.4448 347.6409 11.42195197 71490,11.42195197,0.0001886,LEO
25854,GLOBALSTAR M030,1999,124.67,-1.0,-,51.99,Inactive,0,LEO,USA,Globalstar,Unknown,Unknown,Delta,1 25854U 99037D   23365.50756485 -.00000034  00000+0  86955-3 0  9994,2 25854  51.9884  88.3506 0005036 161.2656 198.8346 11.55087388 88373,11.55087388,0.0005036,LEO
25872,GLOBALSTAR M048,1999,127.0,-1.0,-,51.93,Inactive,0,LEO,USA,Globalstar,Unknown,Unknown,Delta,1 25872U 99041A   24001.36560211 -.00000076  00000+0 -16632-3 0  9993,2 25872  51.9337 160.6717 0012592 347.7240  18.7796 11.33842424 64424,11.33842424,0.0012592,LEO
25873,GLOBALSTAR M026,1999,130.1,-1.0,-,52.0,Inactive,0,MEO,USA,Globalstar,Unknown,Unknown,Delta,1 25873U 99041B   24001.25308575 -.00000015  00000+0  18232-2 0  9994,2 25873  52.0019 287.0231 0002015  74.8760 102.4197 11.06833223 89670,11.06833223,0.0002015,MEO
25874,GLOBALSTAR M043,1999,127.92,-1.0,-,51.94,Inactive,0,LEO,USA,Globalstar,Unknown,Unknown,Delta,1 25874U 99041C   23365.95689946 -.00000063  00000+0  16661-3 0  9996,2 25874  51.9386 248.0375 0013573 120.0789 333.5023 11.25673783 62825,11.25673783,0.0013573,LEO
25875,GLOBALSTAR M028,1999,115.15,-1.0,-,51.96,Inactive,0,LEO,USA,Globalstar,Unknown,Unknown,Delta,1 25875U 99041D   24001.13124845 -.00000067  00000+0  21293-3 0  9998,2 25875  51.9647 342.4955 0063658 354.0969   5.9136 12.50547227123518,12.50547227,0.0063658,LEO
